[{"OBJECT_NAME":"STARLINK-1911","OBJECT_ID":"2020-074L","EPOCH":"2026-03-10T00:00:02.999808","MEAN_MOTION":15.7196626,"ECCENTRICITY":0.00010753,"INCLINATION":53.0465,"RA_OF_ASC_NODE":276.9224,"ARG_OF_PERICENTER":50.1756,"MEAN_ANOMALY":209.8955,"EPHEMERIS_TYPE":0,"CLASSIFICATION_TYPE":"U","NORAD_CAT_ID":46749,"ELEMENT_SET_NO":999,"REV_AT_EPOCH":580,"BSTAR":0.00055147557,"MEAN_MOTION_DOT":0.00073486,"MEAN_MOTION_DDOT":0},{"OBJECT_NAME":"STARLINK-11403 [DTC]","OBJECT_ID":"2025-035J","EPOCH":"2026-03-09T23:13:31.039968","MEAN_MOTION":15.70806088,"ECCENTRICITY":0.00011923,"INCLINATION":42.9995,"RA_OF_ASC_NODE":13.7499,"ARG_OF_PERICENTER":262.5538,"MEAN_ANOMALY":97.5194,"EPHEMERIS_TYPE":0,"CLASSIFICATION_TYPE":"U","NORAD_CAT_ID":63060,"ELEMENT_SET_NO":999,"REV_AT_EPOCH":6126,"BSTAR":0.0018658597,"MEAN_MOTION_DOT":0.00245833,"MEAN_MOTION_DDOT":0}]
